[{"OBJECT_NAME":"STARLINK-34794","OBJECT_ID":"2025-165Q","EPOCH":"2026-03-09T19:13:11.286912","MEAN_MOTION":15.05626104,"ECCENTRICITY":6.586e-5,"INCLINATION":97.6016,"RA_OF_ASC_NODE":147.2836,"ARG_OF_PERICENTER":163.6731,"MEAN_ANOMALY":196.4517,"EPHEMERIS_TYPE":0,"CLASSIFICATION_TYPE":"U","NORAD_CAT_ID":65070,"ELEMENT_SET_NO":999,"REV_AT_EPOCH":3480,"BSTAR":8.9258012e-5,"MEAN_MOTION_DOT":1.227e-5,"MEAN_MOTION_DDOT":0},{"OBJECT_NAME":"OKEAN-3","OBJECT_ID":"1991-039A","EPOCH":"2026-03-09T19:29:17.530944","MEAN_MOTION":15.0480588,"ECCENTRICITY":0.00139411,"INCLINATION":82.519,"RA_OF_ASC_NODE":336.7249,"ARG_OF_PERICENTER":337.9296,"MEAN_ANOMALY":22.1329,"EPHEMERIS_TYPE":0,"CLASSIFICATION_TYPE":"U","NORAD_CAT_ID":21397,"ELEMENT_SET_NO":999,"REV_AT_EPOCH":86505,"BSTAR":0.00031884915,"MEAN_MOTION_DOT":4.536e-5,"MEAN_MOTION_DDOT":0}]
